IRIDIUM 33 DEB          
1 38244U 97051ZU  17345.87476057  .00005916  00000-0  69516-3 0  9998
2 38244  86.4308 190.6320 0008092 277.4939  82.5365 14.84719892418727
